
  {
    "type": "Feature",
    "geometry": {
      "type": "LineString",
      "coordinates": [
        [7.15096235275269, 62.7427979882827],
        [7.15111255645752, 62.7430731515717],
        [7.15029716491699, 62.7432795223552],
        [7.15038299560547, 62.7435055458435],
        [7.15203523635864, 62.7443752287762],
        [7.15256094932556, 62.7447781240484],
        [7.15275406837464, 62.7452547125748],
        [7.15344071388245, 62.7458000776325],
        [7.15390205383301, 62.7460162555871],
        [7.15466380119324, 62.7461882141931],
        [7.15611219406128, 62.7466991709964],
        [7.15706706047058, 62.7471167733528],
        [7.15787172317505, 62.7478340530208],
        [7.1595025062561, 62.7488362502098],
        [7.16209888458252, 62.7500349119535],
        [7.1627426147461, 62.7506047504611],
        [7.16327905654907, 62.7509240517109],
        [7.16331124305725, 62.751095981722],
        [7.16321468353272, 62.7513764979679],
        [7.16294646263123, 62.751503697458],
        [7.16241002082825, 62.7516412388452],
        [7.16222817543894, 62.7517305310306],
        [7.16216166503728, 62.7518896195432],
        [7.16209016740322, 62.7520047379965],
        [7.16190576553345, 62.7522945516789],
        [7.16177701950073, 62.752599098583],
        [7.16187961399555, 62.7529124301652],
        [7.16201062314213, 62.753448866064],
        [7.16217103181407, 62.7535598052706],
        [7.16257564723492, 62.7536722022635],
        [7.16310739517212, 62.7538319902183],
        [7.16340780258179, 62.754033373997],
        [7.16361745493487, 62.7542902821386],
        [7.16372950002551, 62.7545497494163],
        [7.16377073898912, 62.7548316046369],
        [7.1637615817599, 62.7551856346161],
        [7.16359341982752, 62.7553573767173],
        [7.16335476608947, 62.7555130498085],
        [7.16291869757697, 62.7556825740694],
        [7.16266707284376, 62.7557441021562],
        [7.16243369970471, 62.7557791349292],
        [7.16202717740089, 62.7558216759967],
        [7.16175610665232, 62.7558551733239],
        [7.1615221677348, 62.7558694931332],
        [7.16131031513214, 62.7558755419893],
        [7.16085773427039, 62.7559039913404],
        [7.16049492359161, 62.7559434402146],
        [7.16012808959931, 62.7559348181065],
        [7.15945286443457, 62.7558911685369],
        [7.1589509351179, 62.7559759680735],
        [7.15870230691508, 62.75604661818],
        [7.15849152300507, 62.7561399451286],
        [7.15816485928372, 62.7562495984002],
        [7.15779532212764, 62.7563347134616],
        [7.15745931258425, 62.7564950817335],
        [7.15692368801683, 62.7567085722014],
        [7.15601200936362, 62.7570155004118],
        [7.1555239520967, 62.7573055814223],
        [7.15471836738288, 62.7577535462319],
        [7.15462459484115, 62.7578948473539],
        [7.15485306456685, 62.758348481634],
        [7.15490390080959, 62.7585769987112],
        [7.15510535985232, 62.7586932037235],
        [7.15565292863175, 62.7588819123984],
        [7.15582201257348, 62.7590250497226],
        [7.15620045550168, 62.7592892040275],
        [7.15625365963206, 62.7594426694945],
        [7.15613591484726, 62.7595726924866],
        [7.15571166481823, 62.7598288330351],
        [7.15589086990804, 62.7602200653257],
        [7.15593686560169, 62.7604954882112],
        [7.1556024486199, 62.7609810015852],
        [7.15534478891641, 62.7612835310448],
        [7.15514789801091, 62.7614524083284],
        [7.15479340637103, 62.7615837747743],
        [7.15423064539209, 62.7615470896718],
        [7.15381622314453, 62.7615032497156],
        [7.15316103072837, 62.7613514637939],
        [7.15252876281738, 62.7612470949343],
        [7.15167045593262, 62.760923800409],
        [7.15126276016235, 62.7609434429448],
        [7.15104818344116, 62.7612479005766],
        [7.15134859085083, 62.7615327129355],
        [7.15194940567017, 62.7620826876386],
        [7.15235710144043, 62.7622987463233],
        [7.15254485607147, 62.7624357463211],
        [7.15257704257965, 62.7626665334594],
        [7.15277016162872, 62.7628874981762],
        [7.15267360210419, 62.7632017562552],
        [7.15248048305512, 62.7633736147258],
        [7.15224444866181, 62.7636191250894],
        [7.15182602405548, 62.7638940942703],
        [7.1513968706131, 62.7642328920571],
        [7.1513432264328, 62.7644783952676],
        [7.15120375156403, 62.7647386264394],
        [7.15097844600678, 62.7648515562334],
        [7.15138614177704, 62.7650675946344],
        [7.15137541294098, 62.7652541719799],
        [7.15108573436737, 62.7654260184906],
        [7.15088188648224, 62.7655438555191],
        [7.15051710605621, 62.7655438555191],
        [7.15008795261383, 62.765519306177],
        [7.14971244335175, 62.7655733147027],
        [7.1493798494339, 62.7655536752502],
        [7.1489828824997, 62.7655094864344],
        [7.14858591556549, 62.7654260184906],
        [7.14807093143463, 62.7653572800065],
        [7.14755594730377, 62.7652787215427],
        [7.14700877666474, 62.7652590818941],
        [7.14671105146408, 62.7652691472306],
        [7.14626580476761, 62.7653673453095],
        [7.14595466852188, 62.7654066244495],
        [7.14577227830887, 62.7654729078796],
        [7.1456703543663, 62.7655858348618],
        [7.14573472738266, 62.7657503146927],
        [7.14568108320236, 62.7659049739953],
        [7.14569181203842, 62.7660522678151],
        [7.14577689323187, 62.7661739812449],
        [7.14554085882266, 62.7662819957993],
        [7.14524045139268, 62.7663360029282],
        [7.1448220267581, 62.7664538363206],
        [7.14457526351207, 62.7665323916539],
        [7.14425339840858, 62.7666600436242],
        [7.14395299097861, 62.7667385984082],
        [7.14360966820152, 62.7668171529829],
        [7.14341654913942, 62.7668760687767],
        [7.14305176868877, 62.7668858880642],
        [7.14272990358524, 62.7669251651815],
        [7.14234366546104, 62.7669448037206],
        [7.1425582421967, 62.7670577250663],
        [7.14285864962667, 62.7671608267869],
        [7.14300885334161, 62.7673572100194],
        [7.14322343007731, 62.7675044965855],
        [7.14364550433802, 62.7676399016948],
        [7.14394591176799, 62.7678362817367],
        [7.14437506523931, 62.7680719360606],
        [7.14501879544637, 62.7681995813664],
        [7.14570544100054, 62.7685628765198],
        [7.14622042516617, 62.7686610636308],
        [7.14662812096394, 62.769014534523],
        [7.14694998606746, 62.7691912683801],
        [7.14742205488598, 62.7694726656548],
        [7.14802286974588, 62.7696592151298],
        [7.14823744648154, 62.7700421287755],
        [7.14789412370446, 62.7702679473123],
        [7.14763641357422, 62.7704685312602],
        [7.14780829301018, 62.7707097611864],
        [7.14845202321724, 62.770965028407],
        [7.14896700738288, 62.7713773784793],
        [7.14946053387491, 62.7716326399196],
        [7.14997551804054, 62.7717897227844],
        [7.15038321383834, 62.7718977167684],
        [7.15064070592116, 62.7720646157838]
      ]
    },
    "properties": {
      "id": 1948,
      "turtype": "Fottur",
      "navn": "Frænavarden/Middagsfjellet",
      "gradering": "Rød",
      "url": "https://morotur.no/tur/fraenavarden",
      "kommune": "Molde",
      "kulturminner": "Nei",
      "forfatter": "ingvil.grytli@molde.kommune.no"
    }
  }
